ONEWEB-0634             
1 56075U 23043AF  25069.80764213 -.00000142  00000+0 -41232-3 0  9991
2 56075  87.9144 351.5282 0001768  66.5625 293.5691 13.15546238 96385
ONEWEB-0635             
1 56076U 23043AG  25069.80290315 -.00000107  00000+0 -31933-3 0  9997
2 56076  87.9113 351.5418 0001933  89.5471 270.5881 13.15550124 96410
ONEWEB-0636             
1 56077U 23043AH  25069.79496665 -.00000106  00000+0 -31492-3 0  9991
2 56077  87.9125 351.5443 0001892  87.3852 272.7495 13.15546156 96397
ONEWEB-0637             
1 56078U 23043AJ  25069.33230203  .00000015  00000+0  49638-5 0  9996
2 56078  87.9143 351.6216 0001605  85.3035 274.8279 13.15548202 95442
ONEWEB-0647             
1 56079U 23043AK  25069.32753343  .00000174  00000+0  42835-3 0  9997
2 56079  87.9141 351.6343 0002010  82.3801 277.7557 13.15546856 95434
ONEWEB-0651             
1 56080U 23043AL  25069.32278591  .00000208  00000+0  51754-3 0  9994
2 56080  87.9142 351.6202 0001673  88.7847 271.3475 13.15550123 96639
ONEWEB-0718             
1 56081U 23043AM  25069.31802863  .00000162  00000+0  39654-3 0  9993
2 56081  87.9143 351.6055 0001618  63.9095 296.2202 13.15546265 95440
ONEWEB-0561             
1 56710U 23068A   25069.33895316  .00000171  00000+0  38879-3 0  9994
2 56710  87.9314   6.7844 0002126  95.7780 264.3596 13.20773024 88278
